NORAD_CAT_ID,OBJECT_NAME,OBJECT_TYPE,EPOCH,MEAN_MOTION,ECCENTRICITY,INCLINATION,RA_OF_ASC_NODE,ARG_OF_PERICENTER,MEAN_ANOMALY,BSTAR,MEAN_MOTION_DOT,MEAN_MOTION_DDOT,TLE_LINE0,TLE_LINE1,TLE_LINE2,SEMIMAJOR_AXIS,PERIOD,APOGEE,PERIGEE,DECAYED
55774.0,STARLINK-5812,PAYLOAD,2023-04-17 05:25:33,15.69933611,0.0002672,70.0026,30.1734,260.9173,99.172,1.9671e-05,2.154e-05,0.0,0 STARLINK-5812,1 55774U 23028AK  23107.22608748  .00002154  00000-0  19671-4 0  9993,2 55774  70.0026  30.1734 0002672 260.9173  99.1720 15.69933611  7658,6737.224,91.724,360.889,357.289,0.0
55774.0,STARLINK-5812,PAYLOAD,2023-04-17 20:43:05,15.69921284,0.0003218,70.0014,28.3809,267.0196,93.0631,-2.5614e-06,-5.21e-06,0.0,0 STARLINK-5812,1 55774U 23028AK  23107.86326135 -.00000521  00000-0 -25614-5 0  9993,2 55774  70.0014  28.3809 0003218 267.0196  93.0631 15.69921284  7744,6737.259,91.724,361.292,356.956,0.0
55774.0,STARLINK-5812,PAYLOAD,2023-04-18 01:18:20,15.69931077,0.0002977,70.0015,27.8439,259.7981,100.2879,2.2625e-05,2.509e-05,0.0,0 STARLINK-5812,1 55774U 23028AK  23108.05440731  .00002509  00000-0  22625-4 0  9998,2 55774  70.0015  27.8439 0002977 259.7981 100.2879 15.69931077  7778,6737.231,91.724,361.102,357.091,0.0
55774.0,STARLINK-5812,PAYLOAD,2023-04-18 04:21:50,15.69932273,0.0003434,70.0007,27.485,268.2235,91.8567,2.1192e-05,2.337e-05,0.0,0 STARLINK-5812,1 55774U 23028AK  23108.18184000  .00002337  00000-0  21192-4 0  9993,2 55774  70.0007  27.4850 0003434 268.2235  91.8567 15.69932273  7800,6737.228,91.724,361.406,356.779,0.0
55774.0,STARLINK-5812,PAYLOAD,2023-04-19 04:49:52,15.69938027,0.0002818,70.0018,24.6174,255.1056,104.9828,2.8161e-05,3.177e-05,0.0,0 STARLINK-5812,1 55774U 23028AK  23109.20130536  .00003177  00000-0  28161-4 0  9998,2 55774  70.0018  24.6174 0002818 255.1056 104.9828 15.69938027  7956,6737.211,91.723,360.975,357.178,0.0
55774.0,STARLINK-5812,PAYLOAD,2023-04-20 03:46:10,15.69920366,0.0002674,70.0025,21.9316,260.8157,99.2736,1.7336e-05,1.872e-05,0.0,0 STARLINK-5812,1 55774U 23028AK  23110.15706643  .00001872  00000-0  17336-4 0  9994,2 55774  70.0025  21.9316 0002674 260.8157  99.2736 15.69920366  8106,6737.262,91.724,360.928,357.325,0.0
55774.0,STARLINK-5812,PAYLOAD,2023-04-21 04:14:11,15.69946624,0.0004052,70.0006,19.0658,264.7802,95.2931,2.2632e-05,2.512e-05,0.0,0 STARLINK-5812,1 55774U 23028AK  23111.17651868  .00002512  00000-0  22632-4 0  9992,2 55774  70.0006  19.0658 0004052 264.7802  95.2931 15.69946624  8270,6737.187,91.723,361.782,356.322,0.0
55774.0,STARLINK-5812,PAYLOAD,2023-04-21 19:31:43,15.69924689,0.0003678,70.0017,17.2743,267.0345,93.043,3.2113e-06,1.73e-06,0.0,0 STARLINK-5812,1 55774U 23028AK  23111.81369738  .00000173  00000-0  32113-5 0  9992,2 55774  70.0017  17.2743 0003678 267.0345  93.0430 15.69924689  8376,6737.249,91.724,361.592,356.637,0.0
55774.0,STARLINK-5812,PAYLOAD,2023-04-22 19:59:45,15.69919682,0.0003944,70.0002,14.409,260.7281,99.3469,-2.0957e-05,-2.732e-05,0.0,0 STARLINK-5812,1 55774U 23028AK  23112.83316775 -.00002732  00000-0 -20957-4 0  9995,2 55774  70.0002  14.4090 0003944 260.7281  99.3469 15.69919682  8524,6737.264,91.724,361.786,356.472,0.0
55774.0,STARLINK-5812,PAYLOAD,2023-04-23 02:06:45,15.69930738,0.000381,69.9999,13.6928,249.0022,111.0767,1.0683e-06,-8.5e-07,0.0,0 STARLINK-5812,1 55774U 23028AK  23113.08802957 -.00000085  00000-0  10683-5 0  9999,2 55774  69.9999  13.6928 0003810 249.0022 111.0767 15.69930738  8575,6737.232,91.724,361.664,356.53,0.0
55774.0,STARLINK-5812,PAYLOAD,2023-04-23 17:24:15,15.6994365,0.0003877,70.0031,11.9032,258.9631,101.1129,4.971e-05,5.774e-05,0.0,0 STARLINK-5812,1 55774U 23028AK  23113.72518480  .00005774  00000-0  49710-4 0  9996,2 55774  70.0031  11.9032 0003877 258.9631 101.1129 15.69943650  8670,6737.195,91.723,361.672,356.448,0.0
55774.0,STARLINK-5812,PAYLOAD,2023-04-24 02:34:47,15.69930707,0.0004043,69.9999,10.8246,265.0715,95.0019,2.3723e-06,7.2e-07,0.0,0 STARLINK-5812,1 55774U 23028AK  23114.10748868  .00000072  00000-0  23723-5 0  9997,2 55774  69.9999  10.8246 0004043 265.0715  95.0019 15.69930707  8738,6737.232,91.724,361.821,356.373,0.0
55774.0,STARLINK-5812,PAYLOAD,2023-04-25 03:02:50,15.69884856,0.0003348,70.0001,7.9604,268.277,91.8043,-9.7842e-05,-0.00011941,0.0,0 STARLINK-5812,1 55774U 23028AK  23115.12697640 -.00011941  00000-0 -97842-4 0  9992,2 55774  70.0001   7.9604 0003348 268.2770  91.8043 15.69884856  8894,6737.363,91.726,361.484,356.973,0.0
55774.0,STARLINK-5812,PAYLOAD,2023-04-26 01:59:08,15.69917435,0.0002722,70.0028,5.2715,276.4801,83.6085,5.9023e-05,6.888e-05,0.0,0 STARLINK-5812,1 55774U 23028AK  23116.08273505  .00006888  00000-0  59023-4 0  9999,2 55774  70.0028   5.2715 0002722 276.4801  83.6085 15.69917435  9041,6737.27,91.725,360.969,357.301,0.0
55774.0,STARLINK-5812,PAYLOAD,2023-04-26 15:44:54,15.6991947,0.0003089,70.0015,3.6596,279.375,80.7096,0.00010023,0.00011853,0.0,0 STARLINK-5812,1 55774U 23028AK  23116.65618763  .00011853  00000-0  10023-3 0  9995,2 55774  70.0015   3.6596 0003089 279.3750  80.7096 15.69919470  9139,6737.264,91.724,361.211,357.048,0.0
55774.0,STARLINK-5812,PAYLOAD,2023-04-27 02:27:09,15.69943893,0.0003234,70.0011,2.4062,280.1448,79.9383,0.00010163,0.00012035,0.0,0 STARLINK-5812,1 55774U 23028AK  23117.10219034  .00012035  00000-0  10163-3 0  9992,2 55774  70.0011   2.4062 0003234 280.1448  79.9383 15.69943893  9197,6737.195,91.723,361.238,356.881,0.0
55774.0,STARLINK-5812,PAYLOAD,2023-04-28 01:23:26,15.69925562,0.0003625,69.9979,359.7186,277.557,82.5214,1.9474e-07,-1.9e-06,0.0,0 STARLINK-5812,1 55774U 23028AK  23118.05794425 -.00000190  00000-0  19474-6 0  9996,2 55774  69.9979 359.7186 0003625 277.5570  82.5214 15.69925562  9345,6737.247,91.724,361.554,356.67,0.0
55774.0,STARLINK-5812,PAYLOAD,2023-04-28 09:02:12,15.69922139,0.0003317,69.9984,358.8243,271.5938,88.4878,-2.0743e-05,-2.706e-05,0.0,0 STARLINK-5812,1 55774U 23028AK  23118.37653232 -.00002706  00000-0 -20743-4 0  9996,2 55774  69.9984 358.8243 0003317 271.5938  88.4878 15.69922139  9400,6737.257,91.724,361.357,356.887,0.0
55774.0,STARLINK-5812,PAYLOAD,2023-04-29 01:51:28,15.6991223,0.0002957,69.9981,356.8559,279.3373,80.7488,-5.6353e-06,-8.9e-06,0.0,0 STARLINK-5812,1 55774U 23028AK  23119.07741466 -.00000890  00000-0 -56353-5 0  9990,2 55774  69.9981 356.8559 0002957 279.3373  80.7488 15.69912230  9507,6737.285,91.725,361.142,357.158,0.0
55774.0,STARLINK-5812,PAYLOAD,2023-04-29 17:08:59,15.69912267,0.0003107,69.9967,355.0643,269.1296,90.9544,2.1106e-05,2.325e-05,0.0,0 STARLINK-5812,1 55774U 23028AK  23119.71457328  .00002325  00000-0  21106-4 0  9992,2 55774  69.9967 355.0643 0003107 269.1296  90.9544 15.69912267  9602,6737.285,91.725,361.243,357.057,0.0
55774.0,STARLINK-5812,PAYLOAD,2023-04-30 02:19:29,15.69922106,0.0003454,69.9975,353.9883,275.3173,84.7629,3.044e-05,3.449e-05,0.0,0 STARLINK-5812,1 55774U 23028AK  23120.09686810  .00003449  00000-0  30440-4 0  9994,2 55774  69.9975 353.9883 0003454 275.3173  84.7629 15.69922106  9666,6737.257,91.724,361.449,356.795,0.0
55774.0,STARLINK-5812,PAYLOAD,2023-04-30 17:37:01,15.69916285,0.0003844,69.9975,352.1947,269.7267,90.3488,-1.7549e-06,-4.24e-06,0.0,0 STARLINK-5812,1 55774U 23028AK  23120.73404780 -.00000424  00000-0 -17549-5 0  9997,2 55774  69.9975 352.1947 0003844 269.7267  90.3488 15.69916285  9760,6737.274,91.725,361.728,356.549,0.0
55774.0,STARLINK-5812,PAYLOAD,2023-05-01 01:15:47,15.69919236,0.0003131,69.9983,351.2988,274.2051,85.8786,1.2353e-05,1.273e-05,0.0,0 STARLINK-5812,1 55774U 23028AK  23121.05262901  .00001273  00000-0  12353-4 0  9998,2 55774  69.9983 351.2988 0003131 274.2051  85.8786 15.69919236  9810,6737.265,91.724,361.24,357.021,0.0
55774.0,STARLINK-5812,PAYLOAD,2023-05-01 18:05:02,15.69930567,0.0003497,69.9978,349.3277,271.2653,88.8142,1.4615e-05,1.545e-05,0.0,0 STARLINK-5812,1 55774U 23028AK  23121.75350579  .00001545  00000-0  14615-4 0  9999,2 55774  69.9978 349.3277 0003497 271.2653  88.8142 15.69930567  9924,6737.233,91.724,361.454,356.742,0.0
55774.0,STARLINK-5812,PAYLOAD,2023-05-02 01:43:48,15.69932163,0.0003379,69.9997,348.4324,271.3396,88.7412,2.2117e-05,2.448e-05,0.0,0 STARLINK-5812,1 55774U 23028AK  23122.07208913  .00002448  00000-0  22117-4 0  9998,2 55774  69.9997 348.4324 0003379 271.3396  88.7412 15.69932163  9981,6737.228,91.724,361.37,356.817,0.0
55774.0,STARLINK-5812,PAYLOAD,2023-05-02 18:33:05,15.69915224,0.0003663,69.9999,346.464,274.2837,85.794,-4.2716e-06,-7.26e-06,0.0,0 STARLINK-5812,1 55774U 23028AK  23122.77298271 -.00000726  00000-0 -42716-5 0  9998,2 55774  69.9999 346.4640 0003663 274.2837  85.7940 15.69915224 10085,6737.277,91.725,361.609,356.674,0.0
55774.0,STARLINK-5812,PAYLOAD,2023-05-02 21:36:35,15.69920969,0.0003318,69.9997,346.106,259.3296,100.7526,3.4758e-06,2.05e-06,0.0,0 STARLINK-5812,1 55774U 23028AK  23122.90041273  .00000205  00000-0  34758-5 0  9998,2 55774  69.9997 346.1060 0003318 259.3296 100.7526 15.69920969 10110,6737.26,91.724,361.361,356.89,0.0
55774.0,STARLINK-5812,PAYLOAD,2023-05-03 00:40:05,15.6992044,0.0003481,69.999,345.746,263.0384,97.0416,6.3429e-06,5.5e-06,0.0,0 STARLINK-5812,1 55774U 23028AK  23123.02784624  .00000550  00000-0  63429-5 0  9996,2 55774  69.9990 345.7460 0003481 263.0384  97.0416 15.69920440 10124,6737.262,91.724,361.472,356.781,0.0
55774.0,STARLINK-5812,PAYLOAD,2023-05-03 08:18:50,15.6993873,0.0003662,69.9997,344.8493,267.113,92.9646,2.3346e-05,2.597e-05,0.0,0 STARLINK-5812,1 55774U 23028AK  23123.34641853  .00002597  00000-0  23346-4 0  9993,2 55774  69.9997 344.8493 0003662 267.1130  92.9646 15.69938730 10177,6737.209,91.723,361.541,356.607,0.0
55774.0,STARLINK-5812,PAYLOAD,2023-05-03 17:29:20,15.69939283,0.0003678,69.998,343.7746,267.5792,92.4983,2.6148e-05,2.934e-05,0.0,0 STARLINK-5812,1 55774U 23028AK  23123.72871405  .00002934  00000-0  26148-4 0  9991,2 55774  69.9980 343.7746 0003678 267.5792  92.4983 15.69939283 10244,6737.208,91.723,361.551,356.595,0.0
